NORAD_CAT_ID,OBJECT_NAME,OBJECT_TYPE,EPOCH,MEAN_MOTION,ECCENTRICITY,INCLINATION,RA_OF_ASC_NODE,ARG_OF_PERICENTER,MEAN_ANOMALY,BSTAR,MEAN_MOTION_DOT,MEAN_MOTION_DDOT,TLE_LINE0,TLE_LINE1,TLE_LINE2,SEMIMAJOR_AXIS,PERIOD,APOGEE,PERIGEE,DECAYED
52612.0,STARLINK-4002,PAYLOAD,2023-11-28 11:12:33,15.08857183,0.000189,53.2181,55.1101,123.0681,237.0492,0.00024056,3.544e-05,0.0,0 STARLINK-4002,1 52612U 22052Q   23332.46705506  .00003544  00000-0  24056-3 0  9999,2 52612  53.2181  55.1101 0001890 123.0681 237.0492 15.08857183 85590,6917.828,95.436,541.0,538.385,0.0
52612.0,STARLINK-4002,PAYLOAD,2023-11-28 12:47:56,15.08857731,0.000167,53.218,54.8116,112.5922,247.5247,0.00028011,4.175e-05,0.0,0 STARLINK-4002,1 52612U 22052Q   23332.53329512  .00004175  00000-0  28011-3 0  9992,2 52612  53.2180  54.8116 0001670 112.5922 247.5247 15.08857731 85232,6917.826,95.436,540.846,538.536,0.0
52612.0,STARLINK-4002,PAYLOAD,2023-11-29 11:03:21,15.08836035,0.0001737,53.2183,50.652,122.022,238.0941,0.00034664,5.232e-05,0.0,0 STARLINK-4002,1 52612U 22052Q   23333.46067023  .00005232  00000-0  34664-3 0  9997,2 52612  53.2183  50.6520 0001737 122.0220 238.0941 15.08836035 85745,6917.893,95.438,540.959,538.556,0.0
52612.0,STARLINK-4002,PAYLOAD,2023-11-29 12:38:44,15.08839617,0.0001695,53.2182,50.354,120.452,239.6639,0.00027832,4.144e-05,0.0,0 STARLINK-4002,1 52612U 22052Q   23333.52690814  .00004144  00000-0  27832-3 0  9994,2 52612  53.2182  50.3540 0001695 120.4520 239.6639 15.08839617 85381,6917.882,95.438,540.919,538.574,0.0
52612.0,STARLINK-4002,PAYLOAD,2023-11-30 12:29:31,15.08845356,0.0001665,53.2177,45.8939,77.7693,282.3485,-5.9071e-05,-1.228e-05,0.0,0 STARLINK-4002,1 52612U 22052Q   23334.52050782 -.00001228  00000-0 -59071-4 0  9992,2 52612  53.2177  45.8939 0001665  77.7693 282.3485 15.08845356 85907,6917.864,95.437,540.881,538.577,0.0
52612.0,STARLINK-4002,PAYLOAD,2023-12-01 12:20:19,15.08841682,0.0001953,53.2197,41.43,65.3093,294.8102,0.00015232,2.137e-05,0.0,0 STARLINK-4002,1 52612U 22052Q   23335.51411393  .00002137  00000-0  15232-3 0  9999,2 52612  53.2197  41.4300 0001953  65.3093 294.8102 15.08841682 86059,6917.875,95.437,541.091,538.389,0.0
52612.0,STARLINK-4002,PAYLOAD,2023-12-02 10:35:43,15.08836231,0.0001377,53.2184,37.2717,76.4943,283.6203,-3.5267e-05,-8.49e-06,0.0,0 STARLINK-4002,1 52612U 22052Q   23336.44147220 -.00000849  00000-0 -35267-4 0  9998,2 52612  53.2184  37.2717 0001377  76.4943 283.6203 15.08836231 85823,6917.892,95.438,540.71,538.804,0.0
52612.0,STARLINK-4002,PAYLOAD,2023-12-03 04:04:58,15.08833939,0.0001393,53.2179,34.0064,113.8855,246.2284,-0.00074599,-0.00012139,0.0,0 STARLINK-4002,1 52612U 22052Q   23337.17012285 -.00012139  00000-0 -74599-3 0  9996,2 52612  53.2179  34.0064 0001393 113.8855 246.2284 15.08833939 86303,6917.899,95.438,540.728,538.8,0.0
52612.0,STARLINK-4002,PAYLOAD,2023-12-03 10:26:32,15.08824186,0.0001489,53.2196,32.8149,83.8173,276.2989,-0.00018974,-3.305e-05,0.0,0 STARLINK-4002,1 52612U 22052Q   23337.43509852 -.00003305  00000-0 -18974-3 0  9996,2 52612  53.2196  32.8149 0001489  83.8173 276.2989 15.08824186 86340,6917.929,95.439,540.824,538.764,0.0
52612.0,STARLINK-4002,PAYLOAD,2023-12-04 08:41:55,15.08828874,0.0001523,53.2206,28.6541,75.4283,284.6878,0.00022784,3.339e-05,0.0,0 STARLINK-4002,1 52612U 22052Q   23338.36244596  .00003339  00000-0  22784-3 0  9999,2 52612  53.2206  28.6541 0001523  75.4283 284.6878 15.08828874 86482,6917.914,95.438,540.833,538.726,0.0
52612.0,STARLINK-4002,PAYLOAD,2023-12-05 03:46:32,15.08840888,0.000127,53.22,25.0828,70.6962,289.4167,0.00029284,4.376e-05,0.0,0 STARLINK-4002,1 52612U 22052Q   23339.15731916  .00004376  00000-0  29284-3 0  9998,2 52612  53.2200  25.0828 0001270  70.6962 289.4167 15.08840888 86602,6917.878,95.437,540.621,538.864,0.0
52612.0,STARLINK-4002,PAYLOAD,2023-12-05 10:08:04,15.08845951,0.0001365,53.2198,23.8903,99.7677,260.3469,0.00029677,4.439e-05,0.0,0 STARLINK-4002,1 52612U 22052Q   23339.42227556  .00004439  00000-0  29677-3 0  9994,2 52612  53.2198  23.8903 0001365  99.7677 260.3469 15.08845951 86270,6917.862,95.437,540.671,538.783,0.0
52612.0,STARLINK-4002,PAYLOAD,2023-12-06 09:58:52,15.08845394,0.0001497,53.2198,19.4295,105.3843,254.7314,-3.3323e-05,-8.18e-06,0.0,0 STARLINK-4002,1 52612U 22052Q   23340.41588199 -.00000818  00000-0 -33323-4 0  9991,2 52612  53.2198  19.4295 0001497 105.3843 254.7314 15.08845394 86794,6917.864,95.437,540.765,538.693,0.0
52612.0,STARLINK-4002,PAYLOAD,2023-12-07 11:25:02,15.08842207,0.0001556,53.2193,14.672,112.8234,247.2923,-8.4969e-05,-1.64e-05,0.0,0 STARLINK-4002,1 52612U 22052Q   23341.47572253 -.00001640  00000-0 -84969-4 0  9998,2 52612  53.2193  14.6720 0001556 112.8234 247.2923 15.08842207 86953,6917.874,95.437,540.815,538.662,0.0
52612.0,STARLINK-4002,PAYLOAD,2023-12-08 09:40:26,15.08840693,0.0001406,53.2184,10.5088,99.872,260.2431,7.6827e-05,9.35e-06,0.0,0 STARLINK-4002,1 52612U 22052Q   23342.40307951  .00000935  00000-0  76827-4 0  9991,2 52612  53.2184  10.5088 0001406  99.8720 260.2431 15.08840693 86724,6917.878,95.438,540.716,538.771,0.0
52612.0,STARLINK-4002,PAYLOAD,2023-12-09 09:31:12,15.08844897,0.0001476,53.2181,6.0487,84.3551,275.761,0.00010669,1.411e-05,0.0,0 STARLINK-4002,1 52612U 22052Q   23343.39667697  .00001411  00000-0  10669-3 0  9997,2 52612  53.2181   6.0487 0001476  84.3551 275.7610 15.08844897 87240,6917.865,95.437,540.751,538.709,0.0
52612.0,STARLINK-4002,PAYLOAD,2023-12-10 01:25:04,15.08840961,0.0001779,53.2189,3.0773,74.788,285.3309,3.6349e-05,2.9e-06,0.0,0 STARLINK-4002,1 52612U 22052Q   23344.05908151  .00000290  00000-0  36349-4 0  9992,2 52612  53.2189   3.0773 0001779  74.7880 285.3309 15.08840961 87348,6917.877,95.437,540.973,538.512,0.0
52612.0,STARLINK-4002,PAYLOAD,2023-12-10 10:57:23,15.08840971,0.000178,53.2187,1.293,70.6113,289.5071,4.7545e-05,4.69e-06,0.0,0 STARLINK-4002,1 52612U 22052Q   23344.45652111  .00000469  00000-0  47545-4 0  9996,2 52612  53.2187   1.2930 0001780  70.6113 289.5071 15.08840971 87036,6917.877,95.437,540.974,538.511,0.0
52612.0,STARLINK-4002,PAYLOAD,2023-12-11 04:26:37,15.08838377,0.0001416,53.2181,358.0199,90.8697,269.2458,-1.6094e-05,-5.44e-06,0.0,0 STARLINK-4002,1 52612U 22052Q   23345.18516197 -.00000544  00000-0 -16094-4 0  9991,2 52612  53.2181 358.0199 0001416  90.8697 269.2458 15.08838377 87511,6917.885,95.438,540.73,538.771,0.0
52612.0,STARLINK-4002,PAYLOAD,2023-12-11 06:02:01,15.08841189,0.0001489,53.2184,357.7214,92.6497,267.4665,-4.2995e-05,-9.72e-06,0.0,0 STARLINK-4002,1 52612U 22052Q   23345.25140157 -.00000972  00000-0 -42995-4 0  9992,2 52612  53.2184 357.7214 0001489  92.6497 267.4665 15.08841189 87151,6917.877,95.437,540.772,538.712,0.0
52612.0,STARLINK-4002,PAYLOAD,2023-12-12 05:52:47,15.08839503,0.0001693,53.2178,353.2577,113.8713,246.2457,2.1979e-05,6.2e-07,0.0,0 STARLINK-4002,1 52612U 22052Q   23346.24499952  .00000062  00000-0  21979-4 0  9999,2 52612  53.2178 353.2577 0001693 113.8713 246.2457 15.08839503 87679,6917.882,95.438,540.918,538.576,0.0
52612.0,STARLINK-4002,PAYLOAD,2023-12-13 07:18:58,15.08835998,0.0001523,53.2185,348.5069,107.1535,252.9624,1.9145e-05,1.7e-07,0.0,0 STARLINK-4002,1 52612U 22052Q   23347.30484475  .00000017  00000-0  19145-4 0  9993,2 52612  53.2185 348.5069 0001523 107.1535 252.9624 15.08835998 87832,6917.893,95.438,540.811,538.704,0.0
52612.0,STARLINK-4002,PAYLOAD,2023-12-14 05:34:22,15.08835583,0.0001549,53.2187,344.344,107.8383,252.2779,2.9265e-05,1.78e-06,0.0,0 STARLINK-4002,1 52612U 22052Q   23348.23220749  .00000178  00000-0  29265-4 0  9990,2 52612  53.2187 344.3440 0001549 107.8383 252.2779 15.08835583 87606,6917.894,95.438,540.83,538.687,0.0
52612.0,STARLINK-4002,PAYLOAD,2023-12-15 03:49:46,15.08841415,0.0001544,53.2189,340.18,109.0576,251.0583,8.6139e-05,1.083e-05,0.0,0 STARLINK-4002,1 52612U 22052Q   23349.15956239  .00001083  00000-0  86139-4 0  9991,2 52612  53.2189 340.1800 0001544 109.0576 251.0583 15.08841415 88113,6917.876,95.437,540.809,538.673,0.0
52612.0,STARLINK-4002,PAYLOAD,2023-12-15 07:00:32,15.08845967,0.0001406,53.2181,339.5804,86.0406,274.0747,0.00011671,1.57e-05,0.0,0 STARLINK-4002,1 52612U 22052Q   23349.29203926  .00001570  00000-0  11671-3 0  9993,2 52612  53.2181 339.5804 0001406  86.0406 274.0747 15.08845967 87767,6917.862,95.437,540.7,538.754,0.0
52612.0,STARLINK-4002,PAYLOAD,2023-12-16 03:40:34,15.08836202,0.0001548,53.2188,335.7148,78.1497,281.9669,-1.6391e-05,-5.49e-06,0.0,0 STARLINK-4002,1 52612U 22052Q   23350.15317282 -.00000549  00000-0 -16391-4 0  9993,2 52612  53.2188 335.7148 0001548  78.1497 281.9669 15.08836202 88260,6917.892,95.438,540.828,538.686,0.0
52612.0,STARLINK-4002,PAYLOAD,2023-12-16 06:51:20,15.08838244,0.0001675,53.2192,335.1211,75.623,284.4948,7.3837e-06,-1.71e-06,0.0,0 STARLINK-4002,1 52612U 22052Q   23350.28565187 -.00000171  00000-0  73837-5 0  9995,2 52612  53.2192 335.1211 0001675  75.6230 284.4948 15.08838244 87915,6917.886,95.438,540.91,538.592,0.0
52612.0,STARLINK-4002,PAYLOAD,2023-12-17 05:06:43,15.08844723,0.0001975,53.2188,330.9546,63.7591,296.3604,1.4384e-05,-5.9e-07,0.0,0 STARLINK-4002,1 52612U 22052Q   23351.21300917 -.00000059  00000-0  14384-4 0  9993,2 52612  53.2188 330.9546 0001975  63.7591 296.3604 15.08844723 88422,6917.866,95.437,541.097,538.365,0.0
52612.0,STARLINK-4002,PAYLOAD,2023-12-18 03:22:06,15.08854482,0.000169,53.2178,326.7991,78.3054,281.8128,0.00019571,2.829e-05,0.0,0 STARLINK-4002,1 52612U 22052Q   23352.14035614  .00002829  00000-0  19571-3 0  9993,2 52612  53.2178 326.7991 0001690  78.3054 281.8128 15.08854482 88566,6917.836,95.437,540.87,538.532,0.0
52612.0,STARLINK-4002,PAYLOAD,2023-12-18 04:57:29,15.08854597,0.0001587,53.2173,326.5075,83.607,276.5103,0.00020309,2.947e-05,0.0,0 STARLINK-4002,1 52612U 22052Q   23352.20659586  .00002947  00000-0  20309-3 0  9992,2 52612  53.2173 326.5075 0001587  83.6070 276.5103 15.08854597 88206,6917.836,95.437,540.799,538.603,0.0
